start=new Date('2022-12-15T00:00:00.000Z').valueOf();
sats=[{"EPHEMERIS_TYPE":"0","EPOCH":"2022-12-14T20:01:43.084416","REF_FRAME":"TEME","CLASSIFICATION_TYPE":"U","TIME_SYSTEM":"UTC","ECCENTRICITY":"0.00034200","MEAN_MOTION_DOT":"0.00000733","RCS_SIZE":"LARGE","ELEMENT_SET_NO":"999","FILE":"3699647","TLE_LINE2":"2 51469  53.2173 180.1945 0003420  40.9598 319.1650 15.08836936 48556","TLE_LINE1":"1 51469U 22010P   22348.83452644  .00000733  00000-0  64194-4 0  9996","APOAPSIS":"542.121","MEAN_ELEMENT_THEORY":"SGP4","INCLINATION":"53.2173","PERIAPSIS":"537.389","GP_ID":"220409991","SEMIMAJOR_AXIS":"6917.890","DECAY_DATE":null,"COUNTRY_CODE":"US","OBJECT_NAME":"STARLINK-3182","MEAN_ANOMALY":"319.1650","OBJECT_ID":"2022-010P","LAUNCH_DATE":"2022-02-03","REV_AT_EPOCH":"4855","BSTAR":"0.00006419400000","ARG_OF_PERICENTER":"40.9598","MEAN_MOTION":"15.08836936","SITE":"AFETR","CENTER_NAME":"EARTH","RA_OF_ASC_NODE":"180.1945","OBJECT_TYPE":"PAYLOAD","NORAD_CAT_ID":"51469","MEAN_MOTION_DDOT":"0.0000000000000","PERIOD":"95.438"},{"ELEMENT_SET_NO":"999","MEAN_ELEMENT_THEORY":"SGP4","APOAPSIS":"535.704","TLE_LINE1":"1 51471U 22010R   22348.91931811  .00015090  00000-0  90466-3 0  9998","FILE":"3699772","TLE_LINE2":"2 51471  53.2152 174.2254 0004418 150.7475 209.3766 15.11164194 49143","EPHEMERIS_TYPE":"0","EPOCH":"2022-12-14T22:03:49.084704","MEAN_MOTION_DOT":"0.00015090","RCS_SIZE":"LARGE","ECCENTRICITY":"0.00044180","TIME_SYSTEM":"UTC","REF_FRAME":"TEME","CLASSIFICATION_TYPE":"U","OBJECT_TYPE":"PAYLOAD","SITE":"AFETR","CENTER_NAME":"EARTH","RA_OF_ASC_NODE":"174.2254","NORAD_CAT_ID":"51471","MEAN_MOTION_DDOT":"0.0000000000000","PERIOD":"95.291","SEMIMAJOR_AXIS":"6910.785","COUNTRY_CODE":"US","DECAY_DATE":null,"GP_ID":"220415508","PERIAPSIS":"529.597","INCLINATION":"53.2152","BSTAR":"0.00090466000000","MEAN_MOTION":"15.11164194","ARG_OF_PERICENTER":"150.7475","REV_AT_EPOCH":"4914","LAUNCH_DATE":"2022-02-03","OBJECT_ID":"2022-010R","OBJECT_NAME":"STARLINK-3165","MEAN_ANOMALY":"209.3766"},{"OBJECT_TYPE":"PAYLOAD","RA_OF_ASC_NODE":"180.2812","CENTER_NAME":"EARTH","SITE":"AFETR","PERIOD":"95.438","MEAN_MOTION_DDOT":"0.0000000000000","NORAD_CAT_ID":"51472","INCLINATION":"53.2141","PERIAPSIS":"537.621","DECAY_DATE":null,"COUNTRY_CODE":"US","SEMIMAJOR_AXIS":"6917.887","GP_ID":"220410487","LAUNCH_DATE":"2022-02-03","OBJECT_ID":"2022-010S","OBJECT_NAME":"STARLINK-3415","MEAN_ANOMALY":"308.1041","ARG_OF_PERICENTER":"52.0229","MEAN_MOTION":"15.08837676","BSTAR":"0.00009515900000","REV_AT_EPOCH":"4855","ELEMENT_SET_NO":"999","TLE_LINE2":"2 51472  53.2141 180.2812 0003081  52.0229 308.1041 15.08837676 48551","FILE":"3699647","APOAPSIS":"541.884","MEAN_ELEMENT_THEORY":"SGP4","TLE_LINE1":"1 51472U 22010S   22348.81612468  .00001226  00000-0  95159-4 0  9993","EPOCH":"2022-12-14T19:35:13.172352","EPHEMERIS_TYPE":"0","TIME_SYSTEM":"UTC","CLASSIFICATION_TYPE":"U","REF_FRAME":"TEME","RCS_SIZE":"LARGE","MEAN_MOTION_DOT":"0.00001226","ECCENTRICITY":"0.00030810"},{"NORAD_CAT_ID":"51714","MEAN_MOTION_DDOT":"0.0000000000000","PERIOD":"95.438","SITE":"AFETR","CENTER_NAME":"EARTH","RA_OF_ASC_NODE":"230.2625","OBJECT_TYPE":"PAYLOAD","OBJECT_NAME":"STARLINK-3528","MEAN_ANOMALY":"316.6328","LAUNCH_DATE":"2022-02-21","OBJECT_ID":"2022-016A","REV_AT_EPOCH":"4515","BSTAR":"0.00011781000000","MEAN_MOTION":"15.08839073","ARG_OF_PERICENTER":"43.4819","PERIAPSIS":"538.386","INCLINATION":"53.2161","GP_ID":"220409500","SEMIMAJOR_AXIS":"6917.883","COUNTRY_CODE":"US","DECAY_DATE":null,"FILE":"3699647","TLE_LINE2":"2 51714  53.2161 230.2625 0001969  43.4819 316.6328 15.08839073 45150","TLE_LINE1":"1 51714U 22016A   22348.81887241  .00001587  00000-0  11781-3 0  9999","APOAPSIS":"541.110","MEAN_ELEMENT_THEORY":"SGP4","ELEMENT_SET_NO":"999","REF_FRAME":"TEME","CLASSIFICATION_TYPE":"U","TIME_SYSTEM":"UTC","ECCENTRICITY":"0.00019690","MEAN_MOTION_DOT":"0.00001587","RCS_SIZE":"LARGE","EPHEMERIS_TYPE":"0","EPOCH":"2022-12-14T19:39:10.576224"},{"NORAD_CAT_ID":"51715","PERIOD":"95.438","MEAN_MOTION_DDOT":"0.0000000000000","OBJECT_TYPE":"PAYLOAD","SITE":"AFETR","CENTER_NAME":"EARTH","RA_OF_ASC_NODE":"229.7254","OBJECT_ID":"2022-016B","LAUNCH_DATE":"2022-02-21","MEAN_ANOMALY":"333.3737","OBJECT_NAME":"STARLINK-3533","BSTAR":"0.00002604600000","MEAN_MOTION":"15.08835685","ARG_OF_PERICENTER":"26.7399","REV_AT_EPOCH":"4630","PERIAPSIS":"537.818","INCLINATION":"53.2147","SEMIMAJOR_AXIS":"6917.894","COUNTRY_CODE":"US","DECAY_DATE":null,"GP_ID":"220414983","FILE":"3699730","TLE_LINE2":"2 51715  53.2147 229.7254 0002805  26.7399 333.3737 15.08835685 46306","MEAN_ELEMENT_THEORY":"SGP4","APOAPSIS":"541.699","TLE_LINE1":"1 51715U 22016B   22348.94031303  .00000126  00000-0  26046-4 0  9993","ELEMENT_SET_NO":"999","TIME_SYSTEM":"UTC","REF_FRAME":"TEME","CLASSIFICATION_TYPE":"U","MEAN_MOTION_DOT":"0.00000126","RCS_SIZE":"LARGE","ECCENTRICITY":"0.00028050","EPHEMERIS_TYPE":"0","EPOCH":"2022-12-14T22:34:03.045792"},{"SITE":"AFETR","CENTER_NAME":"EARTH","RA_OF_ASC_NODE":"230.2813","OBJECT_TYPE":"PAYLOAD","NORAD_CAT_ID":"51716","MEAN_MOTION_DDOT":"0.0000000000000","PERIOD":"95.438","PERIAPSIS":"538.076","INCLINATION":"53.2171","GP_ID":"220410996","SEMIMAJOR_AXIS":"6917.925","DECAY_DATE":null,"COUNTRY_CODE":"US","OBJECT_NAME":"STARLINK-3543","MEAN_ANOMALY":"347.5070","OBJECT_ID":"2022-016C","LAUNCH_DATE":"2022-02-21","REV_AT_EPOCH":"4515","BSTAR":"0.00025591000000","ARG_OF_PERICENTER":"12.5984","MEAN_MOTION":"15.08825466","ELEMENT_SET_NO":"999","TLE_LINE2":"2 51716  53.2171 230.2813 0002477  12.5984 347.5070 15.08825466 45155","FILE":"3699647","TLE_LINE1":"1 51716U 22016C   22348.81519885  .00003785  00000-0  25591-3 0  9993","APOAPSIS":"541.503","MEAN_ELEMENT_THEORY":"SGP4","EPHEMERIS_TYPE":"0","EPOCH":"2022-12-14T19:33:53.180640","REF_FRAME":"TEME","CLASSIFICATION_TYPE":"U","TIME_SYSTEM":"UTC","ECCENTRICITY":"0.00024770","MEAN_MOTION_DOT":"0.00003785","RCS_SIZE":"LARGE"},{"EPHEMERIS_TYPE":"0","EPOCH":"2022-12-14T09:56:16.048032","TIME_SYSTEM":"UTC","REF_FRAME":"TEME","CLASSIFICATION_TYPE":"U","MEAN_MOTION_DOT":"0.00003300","RCS_SIZE":"LARGE","ECCENTRICITY":"0.00025610","ELEMENT_SET_NO":"999","TLE_LINE2":"2 51717  53.2144 232.0801 0002561  29.4706 330.6430 15.08848755 45098","FILE":"3698874","APOAPSIS":"541.490","MEAN_ELEMENT_THEORY":"SGP4","TLE_LINE1":"1 51717U 22016D   22348.41407463  .00003300  00000-0  22532-3 0  9993","PERIAPSIS":"537.947","INCLINATION":"53.2144","SEMIMAJOR_AXIS":"6917.854","COUNTRY_CODE":"US","DECAY_DATE":null,"GP_ID":"220365736","LAUNCH_DATE":"2022-02-21","OBJECT_ID":"2022-016D","OBJECT_NAME":"STARLINK-3445","MEAN_ANOMALY":"330.6430","BSTAR":"0.00022532000000","MEAN_MOTION":"15.08848755","ARG_OF_PERICENTER":"29.4706","REV_AT_EPOCH":"4509","OBJECT_TYPE":"PAYLOAD","SITE":"AFETR","CENTER_NAME":"EARTH","RA_OF_ASC_NODE":"232.0801","NORAD_CAT_ID":"51717","MEAN_MOTION_DDOT":"0.0000000000000","PERIOD":"95.437"},{"DECAY_DATE":null,"COUNTRY_CODE":"US","SEMIMAJOR_AXIS":"6917.886","GP_ID":"220416002","INCLINATION":"53.2165","PERIAPSIS":"537.626","MEAN_MOTION":"15.08838223","ARG_OF_PERICENTER":"26.6729","BSTAR":"0.00007183600000","REV_AT_EPOCH":"4622","LAUNCH_DATE":"2022-02-21","OBJECT_ID":"2022-016E","MEAN_ANOMALY":"333.4421","OBJECT_NAME":"STARLINK-3546","OBJECT_TYPE":"PAYLOAD","CENTER_NAME":"EARTH","RA_OF_ASC_NODE":"229.7518","SITE":"AFETR","MEAN_MOTION_DDOT":"0.0000000000000","PERIOD":"95.438","NORAD_CAT_ID":"51718","EPOCH":"2022-12-14T22:18:09.633888","EPHEMERIS_TYPE":"0","RCS_SIZE":"LARGE","MEAN_MOTION_DOT":"0.00000855","ECCENTRICITY":"0.00030720","TIME_SYSTEM":"UTC","CLASSIFICATION_TYPE":"U","REF_FRAME":"TEME","ELEMENT_SET_NO":"999","APOAPSIS":"541.876","MEAN_ELEMENT_THEORY":"SGP4","TLE_LINE1":"1 51718U 22016E   22348.92927817  .00000855  00000-0  71836-4 0  9994","TLE_LINE2":"2 51718  53.2165 229.7518 0003072  26.6729 333.4421 15.08838223 46228","FILE":"3699772"},{"DECAY_DATE":null,"COUNTRY_CODE":"US","SEMIMAJOR_AXIS":"6917.879","GP_ID":"220364739","INCLINATION":"53.2169","PERIAPSIS":"538.111","ARG_OF_PERICENTER":"32.7752","MEAN_MOTION":"15.08840326","BSTAR":"0.00004593700000","REV_AT_EPOCH":"4509","OBJECT_ID":"2022-016F","LAUNCH_DATE":"2022-02-21","OBJECT_NAME":"STARLINK-3540","MEAN_ANOMALY":"327.3387","OBJECT_TYPE":"PAYLOAD","RA_OF_ASC_NODE":"232.1186","CENTER_NAME":"EARTH","SITE":"AFETR","MEAN_MOTION_DDOT":"0.0000000000000","PERIOD":"95.438","NORAD_CAT_ID":"51719","EPOCH":"2022-12-14T09:45:40.973472","EPHEMERIS_TYPE":"0","RCS_SIZE":"LARGE","MEAN_MOTION_DOT":"0.00000443","ECCENTRICITY":"0.00023610","TIME_SYSTEM":"UTC","CLASSIFICATION_TYPE":"U","REF_FRAME":"TEME","ELEMENT_SET_NO":"999","MEAN_ELEMENT_THEORY":"SGP4","APOAPSIS":"541.378","TLE_LINE1":"1 51719U 22016F   22348.40672423  .00000443  00000-0  45937-4 0  9994","TLE_LINE2":"2 51719  53.2169 232.1186 0002361  32.7752 327.3387 15.08840326 45090","FILE":"3698874"},{"NORAD_CAT_ID":"51720","PERIOD":"95.437","MEAN_MOTION_DDOT":"0.0000000000000","OBJECT_TYPE":"PAYLOAD","SITE":"AFETR","RA_OF_ASC_NODE":"232.1545","CENTER_NAME":"EARTH","BSTAR":"0.00006775800000","ARG_OF_PERICENTER":"31.1029","MEAN_MOTION":"15.08843984","REV_AT_EPOCH":"4508","LAUNCH_DATE":"2022-02-21","OBJECT_ID":"2022-016G","OBJECT_NAME":"STARLINK-3526","MEAN_ANOMALY":"329.0125","SEMIMAJOR_AXIS":"6917.868","DECAY_DATE":null,"COUNTRY_CODE":"US","GP_ID":"220365987","PERIAPSIS":"537.840","INCLINATION":"53.2183","APOAPSIS":"541.627","MEAN_ELEMENT_THEORY":"SGP4","TLE_LINE1":"1 51720U 22016G   22348.39567906  .00000790  00000-0  67758-4 0  9993","FILE":"3698874","TLE_LINE2":"2 51720  53.2183 232.1545 0002737  31.1029 329.0125 15.08843984 45085","ELEMENT_SET_NO":"999","MEAN_MOTION_DOT":"0.00000790","RCS_SIZE":"LARGE","ECCENTRICITY":"0.00027370","TIME_SYSTEM":"UTC","REF_FRAME":"TEME","CLASSIFICATION_TYPE":"U","EPHEMERIS_TYPE":"0","EPOCH":"2022-12-14T09:29:46.670784"}];
